{"spkid": "20366746", "covariance": {"epoch": "2456486.5", "elements": [{"units": null, "title": "eccentricity", "value": ".4615105045780215", "name": "e", "sigma": 1.42500221819839e-07, "label": "e"}, {"value": ".5854299333004418", "title": "perihelion distance", "units": "au", "name": "q", "sigma": 1.54741509858129e-07, "label": "q"}, {"label": "tp", "name": "tp", "sigma": 1.63709898308649e-05, "title": "time of perihelion passage", "value": "2456401.710379246486", "units": "TDB"}, {"label": "node", "value": "246.7718867416623", "title": "longitude of the ascending node", "units": "deg", "sigma": 1.82637876927561e-05, "name": "om"}, {"title": "argument of perihelion", "value": "256.0117441149623", "units": "deg", "sigma": 2.01803915606096e-05, "name": "w", "label": "peri"}, {"name": "i", "sigma": 1.55972439209535e-05, "units": "deg", "title": "inclination", "value": "18.28458037568895", "label": "i"}], "data": [["2.030631321870328E-14", "-2.205049965735376E-14", "1.112371291649104E-12", "1.795214007773009E-13", "-1.634521965413496E-12", "8.67167812072773E-13"], ["-2.205049965735376E-14", "2.394493487317335E-14", "-1.207500010522772E-12", "-1.940439215750389E-13", "1.773576178773347E-12", "-9.406923775993949E-13"], ["1.112371291649104E-12", "-1.207500010522772E-12", "2.68009308042281E-10", "1.180435391692384E-10", "-9.331069050156903E-11", "2.614376390879204E-11"], ["1.795214007773009E-13", "-1.940439215750389E-13", "1.180435391692384E-10", "3.335659408860699E-10", "-2.866380752936822E-10", "1.910595335322748E-10"], ["-1.634521965413496E-12", "1.773576178773347E-12", "-9.331069050156903E-11", "-2.866380752936822E-10", "4.072482035395248E-10", "-2.573608679980139E-10"], ["8.67167812072773E-13", "-9.406923775993949E-13", "2.614376390879204E-11", "1.910595335322748E-10", "-2.573608679980139E-10", "2.432740179297216E-10"]], "labels": ["e", "q", "tp", "node", "peri", "i"]}, "elements": [{"label": "e", "units": null, "title": "eccentricity", "value": ".4615601036493025", "sigma": "1.4185E-7", "name": "e"}, {"name": "a", "sigma": "3.4266E-9", "units": "au", "title": "semi-major axis", "value": "1.086606639747582", "label": "a"}, {"name": "q", "sigma": "1.5582E-7", "units": "au", "title": "perihelion distance", "value": ".585072366479668", "label": "q"}, {"label": "i", "name": "i", "sigma": "1.5593E-5", "value": "18.28078446216547", "title": "inclination; angle with respect to x-y ecliptic plane", "units": "deg"}, {"label": "node", "units": "deg", "title": "longitude of the ascending node", "value": "246.6841549252292", "sigma": "1.8285E-5", "name": "om"}, {"title": "argument of perihelion", "value": "256.1021230534409", "units": "deg", "sigma": "1.9992E-5", "name": "w", "label": "peri"}, {"label": "M", "units": "deg", "title": "mean anomaly", "value": "214.3240882098011", "sigma": "1.0806E-5", "name": "ma"}, {"name": "tp", "sigma": "1.2421E-5", "units": "TDB", "value": "2461367.914165677862", "title": "time of perihelion passage", "label": "tp"}, {"label": "period", "title": "sidereal orbital period", "value": "413.7204216084073", "units": "d", "sigma": "1.957E-6", "name": "per"}, {"sigma": "4.116E-9", "name": "n", "title": "mean motion", "value": ".8701528404144032", "units": "deg/d", "label": "n"}, {"label": "Q", "name": "ad", "sigma": "5.0082E-9", "units": "au", "title": "aphelion distance", "value": "1.588140913015497"}], "epoch": "2461200.5"}